idDrone,idRegion,RegionState,StreetCode1,StreetCode2,StreetCode3,HouseNumber,StreetName,longitude,latitude,currentDate,currentTime,violationType,code,violationDescription,idPhoto,plaque,plateType,VehicleBodyType,VehicleMake,VehicleColor
1022,1435,CT,0,0,0,"",HORACE HARDING EXPWY,-62.573067,-104.854355,"",16:30:00,1,7,FAILURE TO STOP AT RED LIGHT,sTzFP6eiid,749ZTA,"",ST W,CHEVR,BLK
65,6,NY,0,0,0,"",ATLANTIC AVE.(E/B) @,-75.95304,-77.02782,"",16:34:00,1,7,FAILURE TO STOP AT RED LIGHT,O2TTB8BBc1,T601612C,"",4DSD,LINCO,BK
12,1,NY,0,0,0,"",4TH AVE.(N/B)@18TH S,-71.03795,-73.803215,"",16:39:00,1,7,FAILURE TO STOP AT RED LIGHT,LJu5eju0hM,GFP1239,"",4DSD,HONDA,BK
61,6,NY,0,0,0,"",QUEENS BLVD.(W/B)@JA,-74.08374,-77.62296,"",16:40:00,1,7,FAILURE TO STOP AT RED LIGHT,mGEJpxRSeo,91124KA,"",DELV,MITSU,WH
23,2,NY,0,0,0,"",HMLTN AVE. (N)@CLINT,-70.56306,-72.51217,"",16:39:00,1,7,FAILURE TO STOP AT RED LIGHT,qecSiWw9Jh,GEH5223,"",SUBN,ME/BE,BK
76,7,NY,0,0,0,"",ATLANTIC AVE.(E/B) @,-76.84788,-79.447464,"",16:43:00,1,7,FAILURE TO STOP AT RED LIGHT,1QuVb0cXa9,T632806C,"",4DSD,CADIL,BK
597,869,NJ,0,0,0,"",E. FORDHAM RD.(E/B)@,-64.009895,-109.88914,"",16:46:00,1,7,FAILURE TO STOP AT RED LIGHT,QcyVGp1dLg,K18DAR,"",WAGO,FORD,RD
65,6,NY,0,0,0,"",GRAND CONCOURSE(N/B),-75.002754,-76.061424,"",16:47:00,1,7,FAILURE TO STOP AT RED LIGHT,nTsrA0pvhw,GEX2192,"",SUBN,CHRYS,GY
46,4,NY,0,0,0,"",KISSENA BLVD.(S/B)@B,-72.4001,-75.03764,"",16:47:00,1,7,FAILURE TO STOP AT RED LIGHT,3fgRs5osCj,GHG4681,"",4DSD,BMW,GY
54,5,NY,0,0,0,"",CLOVE RD (N/B)@CHESH,-75.122284,-76.165085,"",16:50:00,1,7,FAILURE TO STOP AT RED LIGHT,5OwUaBp553,42112JW,"","",ISUZU,WH
27,2,NY,0,0,0,"",CLOVE RD (N/B)@CHESH,-70.37769,-73.54653,"",16:56:00,1,7,FAILURE TO STOP AT RED LIGHT,TdsSlPWF6K,50544MC,"",VAN,FORD,RD
14,1,NY,0,0,0,"",BRONX RIVER PKWY OFF,-71.92851,-72.64863,"",17:02:00,1,7,FAILURE TO STOP AT RED LIGHT,9TEFMTzDIU,8151052,"",N/A,"",""
22,2,NY,0,0,0,"",VAN WYCK EXP.SVC. RD,-71.63503,-72.74213,"",17:04:00,1,7,FAILURE TO STOP AT RED LIGHT,iElYBnvfGo,GEG6333,"",4DSD,LEXUS,RD
36,3,NY,0,0,0,"",W. FORDHAM RD.(W/B)@,-72.96861,-74.16106,"",16:13:00,1,7,FAILURE TO STOP AT RED LIGHT,lIdSPhAEyi,T515648C,"",SUBN,ME/BE,BK
74,7,NY,0,0,0,"",CLOVE RD.(S/B)@CHESH,-76.21246,-79.0351,"",17:04:00,1,7,FAILURE TO STOP AT RED LIGHT,aDqpUolzuT,IVORIES1,"",SUBN,LINCO,BK
12,1,NY,0,0,0,"",QUEENS BLVD.  (E/B),-71.301636,-73.81548,"",17:05:00,1,7,FAILURE TO STOP AT RED LIGHT,jPXTyioOQs,90774,"",4DSD,ME/BE,WH
42,4,NY,0,0,0,"",NORTHERN BLVD.  (E/B,-72.298706,-74.01796,"",17:08:00,1,7,FAILURE TO STOP AT RED LIGHT,uUd2xhRlNE,GCH2230,"",SW,TOYOT,""
41,4,NY,0,0,0,"",ATLANTIC AVE. (W/B)@,-73.35889,-74.14796,"",17:12:00,1,7,FAILURE TO STOP AT RED LIGHT,stZtNCScbc,GFT8093,"",SUBN,FORD,BK
1314,629,CT,0,0,0,"",BRUCKNER BLVD.(E/B)@,-67.083916,-90.648346,"",17:12:00,1,7,FAILURE TO STOP AT RED LIGHT,4aKpDGsJIl,577YJS,"",ST W,BMW,TAN
27,2,NY,0,0,0,"",CLOVE RD (N/B)@CHESH,-70.64213,-73.947,"",17:14:00,1,7,FAILURE TO STOP AT RED LIGHT,dTnUXMWcah,GEJ6545,"",SUBN,HYUND,WHGY
14,1,NY,0,0,0,"",222ND ST.(W/B)@PAULD,-70.841896,-72.66412,"",22:03:00,1,7,FAILURE TO STOP AT RED LIGHT,zFbZufKrOB,62567MD,"",VAN,WHITE,YW
75,7,NY,0,0,0,"",ATLANTIC AVE.(W)@ BE,-77.42355,-79.07104,"",22:11:00,1,7,FAILURE TO STOP AT RED LIGHT,dBiDGif0B0,GGF3778,"",SUBN,INFIN,BK
65,6,NY,0,0,0,"",ATLANTIC AVE.(W)@ BE,-75.041534,-76.44499,"",22:00:00,1,7,FAILURE TO STOP AT RED LIGHT,467TV6dURS,GAW6854,"",4DSD,HONDA,RD
661,1077,SC,0,0,0,"",RICHMOND AVE.(N/B)@V,-51.117085,-121.45304,"",22:11:00,1,7,FAILURE TO STOP AT RED LIGHT,ibppZKbyRh,ISK599,"",2S,FORD,""
14,1,NY,0,0,0,"",EASTERN PKWY(W/B)@HO,-71.75818,-72.77529,"",22:12:00,1,7,FAILURE TO STOP AT RED LIGHT,WpFYkPV04v,GCJ7560,"","",HONDA,GY
11,1,NY,0,0,0,"",CROPSEY AVE. (W/B)@2,-71.44735,-72.3352,"",22:13:00,1,7,FAILURE TO STOP AT RED LIGHT,64kjaLn5lE,T614134C,"",SUBN,TOYOT,GY
1761,1372,VA,0,0,0,"",ATLANTIC AVE.(W/B)@K,-64.4236,-105.41223,"",22:15:00,1,7,FAILURE TO STOP AT RED LIGHT,W1A8BDUmPj,XUN8548,"",SU,GMC,RED
1821,733,NJ,0,0,0,"",BAY PKWY.(S/B)@65TH,-51.933136,-85.77121,"",22:18:00,1,7,FAILURE TO STOP AT RED LIGHT,cLwR5oXzlc,V66AFF,"","",CHRYS,BK
57,5,NY,0,0,0,"",CADMAN PLAZA(E/B)@PR,-74.573944,-76.60754,"",22:21:00,1,7,FAILURE TO STOP AT RED LIGHT,AntYLvVnYN,GBM6793,"",SUBN,KIA,WH
73,7,NY,0,0,0,"",FLATBUSH AVE.(N/B) @,-76.48246,-78.75851,"",21:12:00,1,7,FAILURE TO STOP AT RED LIGHT,52jnU7RPwb,EGM4737,"","",CHEVR,BK
26,2,NY,0,0,0,"",SUNRISE HWY.(W/B) @,-70.74439,-72.84715,"",22:08:00,1,7,FAILURE TO STOP AT RED LIGHT,f0qG3eybLG,GEN6464,"",SUBN,DODGE,RD
37,3,NY,0,0,0,"",BORDEN AVE.(E/B)@GRE,-72.487785,-75.140305,"",22:19:00,1,7,FAILURE TO STOP AT RED LIGHT,g7CVOJ344d,EJS1957,"",4DSD,TOYOT,GY
57,5,NY,0,0,0,"",BRUCKNER BLVD.(E/B)@,-75.205696,-76.42053,"",22:24:00,1,7,FAILURE TO STOP AT RED LIGHT,c9Ijd3zZ65,GGP5303,"",SUBN,NISSA,MR
32,3,NY,0,0,0,"",SO. CONDUIT AVE. (E/,-73.578735,-75.252365,"",22:27:00,1,7,FAILURE TO STOP AT RED LIGHT,Z32YFBXPSd,T634981C,"","",LINCO,BK
480,1506,MA,0,0,0,"",VICTORY BLVD (E/B) @,-68.00061,-112.48297,"",22:30:00,1,7,FAILURE TO STOP AT RED LIGHT,evKb6nPQ8a,886WC5,"",SD,HONDA,""
71,7,NY,0,0,0,"",E. FORDHAM RD.(E/B)@,-76.627754,-79.92565,"",22:30:00,1,7,FAILURE TO STOP AT RED LIGHT,VgFJUIHOoK,T633616C,"",4DSD,TOYOT,WH
53,5,NY,0,0,0,"",ATLANTIC AVE.(W/B)@K,-74.68441,-77.296326,"",22:35:00,1,7,FAILURE TO STOP AT RED LIGHT,nPi4MY6oVg,EEG7343,"",SUBN,DODGE,WH
77,7,NY,0,0,0,"",ROCKAWAY PKWY (N/B)@,-77.63122,-78.22816,"",22:36:00,1,7,FAILURE TO STOP AT RED LIGHT,kQhhOxxvX9,GAW5453,"",4DSD,BMW,BK
66,6,NY,0,0,0,"",HORACE HARDING EXPWY,-74.763695,-77.58781,"",22:37:00,1,7,FAILURE TO STOP AT RED LIGHT,22PVPHDkqK,FBA3680,"",SUBN,LEXUS,WH
14,1,NY,0,0,0,"",NORTHERN BLVD.(E/B)@,-70.30871,-73.94703,"",22:43:00,1,7,FAILURE TO STOP AT RED LIGHT,P6hcYNTu02,GCS1917,"",SUBN,FORD,BK
62,6,NY,0,0,0,"",BORDEN AVE.(E/B)@GRE,-74.2472,-77.93473,"",22:43:00,1,7,FAILURE TO STOP AT RED LIGHT,L5rsgAVdYf,GCV5961,"",SUBN,JEEP,WH
17,1,NY,0,0,0,"",BRONX RIVER PKWY OFF,-70.84477,-72.730484,"",22:38:00,1,7,FAILURE TO STOP AT RED LIGHT,Qh46YdyRv8,EJS6048,"",PICK,CHEVR,WH
14,1,NY,0,0,0,"",ATLANTIC AVE.(W/B)@K,-70.24176,-73.37723,"",22:44:00,1,7,FAILURE TO STOP AT RED LIGHT,3huBMC1jeo,GDS3966,"","",CHEVR,RD
52,5,NY,0,0,0,"",WEST ST.  (S/B) @  W,-75.43723,-77.50673,"",21:39:00,1,7,FAILURE TO STOP AT RED LIGHT,ZfEZFWWhIx,8K19C,"",TAXI,TOYOT,YW
27,2,NY,0,0,0,"",OCEAN PKWY. (N)@ CHU,-71.7961,-72.42518,"",22:14:00,1,7,FAILURE TO STOP AT RED LIGHT,u1j49PvDBl,GCR7328,"",SUBN,TOYOT,BR
55,5,NY,0,0,0,"",OCEAN PKWY(N/B)@AVE.,-74.81596,-76.29699,"",22:49:00,1,7,FAILURE TO STOP AT RED LIGHT,1YmEtv2alm,EJE8453,"","",FORD,GR
61,6,NY,0,0,0,"",HORACE HARDING EXPWY,-74.31023,-76.39357,"",22:49:00,1,7,FAILURE TO STOP AT RED LIGHT,qMIrW9elZY,EXA7816,"",4DSD,TOYOT,GY
31,3,NY,0,0,0,"",S. CONDUIT AVE.(E/B),-73.39648,-75.03995,"",22:47:00,1,7,FAILURE TO STOP AT RED LIGHT,2T3FtDANgh,GGB8621,"",4DSD,HYUND,BL
34,3,NY,0,0,0,"",ROCKAWAY BLVD. (S/B),-72.724045,-75.99526,"",22:52:00,1,7,FAILURE TO STOP AT RED LIGHT,tXQX7H9ehf,EHR3513,"",4DSD,TOYOT,TN
63,6,NY,0,0,0,"",OCEAN PKWY(N/B)@AVE.,-74.23205,-76.54469,"",22:53:00,1,7,FAILURE TO STOP AT RED LIGHT,6zyR4ZxJDh,FDC8538,"",SUBN,HONDA,GY
43,4,NY,0,0,0,"",MCDONALD AVE.(S/B)@V,-72.39917,-75.5584,"",22:31:00,1,7,FAILURE TO STOP AT RED LIGHT,iCMY6b6ufJ,GHA4847,"",SUBN,HONDA,BK
64,6,NY,0,0,0,"",QUEENS BLVD. (W/B) @,-74.428764,-77.18941,"",22:51:00,1,7,FAILURE TO STOP AT RED LIGHT,L62tVavxja,EWB2683,"","",TOYOT,TN
62,6,NY,0,0,0,"",ATLANTIC AVE.(W)@ BE,-74.108055,-77.7357,"",23:06:00,1,7,FAILURE TO STOP AT RED LIGHT,7t1KGQjivv,GFL1117,"",2DSD,NISSA,BK
27,2,NY,0,0,0,"",ASTORIA BLVD.(W/B)@S,-71.18725,-73.482956,"",23:07:00,1,7,FAILURE TO STOP AT RED LIGHT,S85DEWZKvQ,FFC4223,"",4DSD,BUICK,BK
23,2,NY,0,0,0,"",4TH AVE.(N/B)@18TH S,-71.044525,-72.07266,"",23:15:00,1,7,FAILURE TO STOP AT RED LIGHT,z38ReoyH73,GEB9405,"",2DSD,VOLKS,BK
23,2,NY,0,0,0,"",REMSEN AVE.(N/B)@WIN,-70.135414,-73.10659,"",23:16:00,1,7,FAILURE TO STOP AT RED LIGHT,8dgdyEYkKz,FFP5408,"","",TOYOT,GY
56,5,NY,0,0,0,"",CADMAN PLAZA(E/B)@PR,-75.269615,-77.30201,"",23:21:00,1,7,FAILURE TO STOP AT RED LIGHT,tgDAKjNiys,7T28A,"","",TOYOT,YW
491,114,MO,0,0,0,"",HOYT AVE.(S/B)@31ST,-61.161026,-112.70584,"",23:26:00,1,7,FAILURE TO STOP AT RED LIGHT,afh7747J0c,HE5P5W,"",SEDA,TOYOT,""
37,3,NY,0,0,0,"",OCEAN PKWY(N/B)@AVE.,-72.507065,-75.73155,"",23:03:00,1,7,FAILURE TO STOP AT RED LIGHT,6ZGBXdDzi6,GET5867,"","",NISSA,BK
990,1387,NJ,0,0,0,"",E. 135TH ST. (W)@ AL,-50.937485,-124.43572,"",23:30:00,1,7,FAILURE TO STOP AT RED LIGHT,A334gPXnsw,H70ADT,"",4 DR,MAZDA,RD
77,7,NY,0,0,0,"",E. FORDHAM RD.(W/B)@,-77.702194,-78.59259,"",23:32:00,1,7,FAILURE TO STOP AT RED LIGHT,r24ZHsdcKE,GFE5557,"",4DSD,TOYOT,WH
234,1674,NJ,0,0,0,"",BEACH CHANNEL DR.(W/,-63.441338,-80.82588,"",23:42:00,1,7,FAILURE TO STOP AT RED LIGHT,qfrmD5NIBp,YLZ25F,"",4 DR,TOYOT,""
65,6,NY,0,0,0,"",CRS BRNX EXP. (W)@RO,-75.25852,-77.71602,"",22:59:00,1,7,FAILURE TO STOP AT RED LIGHT,CM1vwDIWAU,EVA9881,"","",ACURA,BK
34,3,NY,0,0,0,"",BROADWAY (S/B) @ SHE,-73.591286,-74.78692,"",23:29:00,1,7,FAILURE TO STOP AT RED LIGHT,mi92aX41yW,EXA4736,"",4DSD,BMW,WH
1651,1619,NJ,0,0,0,"",ATLANTIC AVE.(W/B)@K,-63.65998,-108.5966,"",23:35:00,1,7,FAILURE TO STOP AT RED LIGHT,MxgMgdR3Ln,K74CKF,"",WAGO,HONDA,RD
53,5,NY,0,0,0,"",ATLANTIC AVE.(W/B)@K,-75.25558,-77.33465,"",23:47:00,1,7,FAILURE TO STOP AT RED LIGHT,xAmcTdHmHM,EJZ7121,"","",NISSA,TN
22,2,NY,0,0,0,"",MCDONALD AVE.(S/B)@V,-71.33495,-72.8607,"",23:54:00,1,7,FAILURE TO STOP AT RED LIGHT,5oDw68PEsh,5B17A,"",TAXI,FORD,YW
34,3,NY,0,0,0,"",QUEENS BLVD. (E/B) @,-73.47711,-75.279495,"",12:02:00,1,7,FAILURE TO STOP AT RED LIGHT,4RzRdOeIqj,EWT5939,"",4DSD,HONDA,WH
17,1,NY,0,0,0,"",QUEENS BLVD. (E/B) @,-70.349915,-72.059784,"",12:04:00,1,7,FAILURE TO STOP AT RED LIGHT,lzpcJ0Am26,GBD8401,"",4DSD,ME/BE,GY
34,3,NY,0,0,0,"",ATLANTIC AVE.(W/B)@K,-73.07839,-74.61503,"",23:57:00,1,7,FAILURE TO STOP AT RED LIGHT,C2kYRW2Izu,EFF2353,"",4DSD,LEXUS,BL
14,1,NY,0,0,0,"",SEAGIRT BLVD.(W/B)@B,-71.55722,-72.398544,"",12:09:00,1,7,FAILURE TO STOP AT RED LIGHT,g5pCVAQMbB,GDU6262,"",4DSD,NISSA,BK
47,4,NY,0,0,0,"",ALLERTON AVE.(E/B)@W,-73.130455,-75.187,"",12:09:00,1,7,FAILURE TO STOP AT RED LIGHT,5jxVSLh72j,GFZ5770,"",4DSD,ACURA,GY
14,1,NY,0,0,0,"",12TH AVE.(S/B) @ 23T,-70.9006,-72.02317,"",23:57:00,1,7,FAILURE TO STOP AT RED LIGHT,q5RF43ysbn,T617217C,"",4DSD,LINCO,BK
1599,1260,NJ,0,0,0,"",ROCKAWAY BLVD. (S/B),-52.863876,-79.05791,"",23:58:00,1,7,FAILURE TO STOP AT RED LIGHT,1gOJT9KKnh,T67CJP,"",4 DR,HYUND,GREY
26,2,NY,0,0,0,"",YORK AVE. (N/B) @ E.,-71.61871,-72.181885,"",12:15:00,1,7,FAILURE TO STOP AT RED LIGHT,Yv1S9IraVP,5D76A,"",TAXI,FORD,YW
54,5,NY,0,0,0,"",SEAGIRT BLVD.(W/B)@B,-75.54643,-76.65244,"",12:16:00,1,7,FAILURE TO STOP AT RED LIGHT,e8HWqQb1hp,GEK2706,"","",MITSU,WH
46,4,NY,0,0,0,"",ATLANTIC AVE.(W/B)@P,-72.81879,-75.47666,"",12:24:00,1,7,FAILURE TO STOP AT RED LIGHT,STH26oLIqD,R798SL,"",SUBN,TOYOT,BL
12,1,NY,0,0,0,"",SEAGIRT BLVD.(W/B)@B,-70.6186,-72.09994,"",12:21:00,1,7,FAILURE TO STOP AT RED LIGHT,D9P41kVqAm,49EMT,"",4DSD,ACURA,BK
27,2,NY,0,0,0,"",HORACE HARDING EXPWY,-70.04027,-73.3802,"",12:24:00,1,7,FAILURE TO STOP AT RED LIGHT,JJFDixLS3t,ENJ3545,"",SUBN,SUBAR,GY
24,2,NY,0,0,0,"",NORTHERN BLVD.(E/B)@,-71.539,-72.892654,"",12:35:00,1,7,FAILURE TO STOP AT RED LIGHT,tJLL3TapV7,ETE8643,"",PICK,TOYOT,GY
21,2,NY,0,0,0,"",ASTORIA BLVD.(W/B)@S,-71.222786,-72.88538,"",12:38:00,1,7,FAILURE TO STOP AT RED LIGHT,WrIzGSaSTZ,EWC6705,"",SUBN,SUBAR,GY
72,7,NY,0,0,0,"",RICHMOND RD.(E/B)@ N,-76.71582,-78.47552,"",12:07:00,1,7,FAILURE TO STOP AT RED LIGHT,ThUI7HqIHx,GDP9269,"",4DSD,BMW,BK
12,1,NY,0,0,0,"",5TH AVE.(S/B)@40TH S,-70.99222,-72.65431,"",01:15:00,1,7,FAILURE TO STOP AT RED LIGHT,uFrRvpEnMT,GEH6806,"",SUBN,FORD,GR
348,110,NJ,0,0,0,"",ROCKAWAY PKWY (N/B)@,-50.61089,-72.349014,"",01:03:00,1,7,FAILURE TO STOP AT RED LIGHT,bxVa32JM0F,VJL25G,"","",TOYOT,GY
1931,769,MA,0,0,0,"",SO. CONDUIT AVE. (E/,-66.791504,-112.190445,"",01:11:00,1,7,FAILURE TO STOP AT RED LIGHT,Xf8Uy7HxHR,492WA8,"",4D,FORD,""
36,3,NY,0,0,0,"",BORDEN AVE.(E/B)@GRE,-73.374306,-75.05693,"",01:18:00,1,7,FAILURE TO STOP AT RED LIGHT,n9VID0V5gR,ESA7689,"",PICK,CHEVR,WHGR
76,7,NY,0,0,0,"",HOYT AVE.(S/B)@31ST,-76.983665,-78.80724,"",01:05:00,1,7,FAILURE TO STOP AT RED LIGHT,mFZreHuvVf,END3573,"",UT,KIA,BLK
27,2,NY,0,0,0,"",QUEENS BLVD. (E/B) @,-71.64189,-73.48318,"",01:46:00,1,7,FAILURE TO STOP AT RED LIGHT,XUSGjDxOQF,T528005C,"",4DSD,LINCO,GY
51,5,NY,0,0,0,"",12TH AVE.(S/B) @ 23T,-75.70055,-76.04175,"",02:41:00,1,7,FAILURE TO STOP AT RED LIGHT,5fXcvR9ONl,ESH7582,"","",MAZDA,RD
61,6,NY,0,0,0,"",HYLAN BLVD (E/B) @ B,-74.4167,-76.348946,"",03:07:00,1,7,FAILURE TO STOP AT RED LIGHT,0XIgbzeYLa,EPR9560,"","",INFIN,GY
22,2,NY,0,0,0,"",RICHMOND AVE.(S/B)@E,-70.41897,-72.91157,"",04:06:00,1,7,FAILURE TO STOP AT RED LIGHT,1wILXPuV1R,GGD5792,"",4DSD,HYUND,GY
25,2,NY,0,0,0,"",CROSSBAY BLVD.(S/B)@,-71.941414,-72.75331,"",06:44:00,1,7,FAILURE TO STOP AT RED LIGHT,7OH4ufVs6V,EEJ3199,"",4DSD,TOYOT,WH
22,2,NY,0,0,0,"",2ND AVE.(S/B)@26TH S,-71.61079,-73.85115,"",07:07:00,1,7,FAILURE TO STOP AT RED LIGHT,gQfEY4cL6C,5F41A,"",TAXI,FORD,YW
75,7,NY,0,0,0,"",ALLERTON AVE.(W/B)@B,-76.18014,-78.33888,"",07:43:00,1,7,FAILURE TO STOP AT RED LIGHT,3WadhrQL56,EMY8169,"","",MERCU,RD
32,3,NY,0,0,0,"",WEST ST.  (S/B) @  W,-73.02136,-74.91336,"",08:23:00,1,7,FAILURE TO STOP AT RED LIGHT,ET9QrOstSq,4L11B,"",TAXI,FORD,YW
199,966,NJ,0,0,0,"",ATLANTIC AVE.(W)@ BE,-54.221046,-112.48645,"",12:11:00,1,7,FAILURE TO STOP AT RED LIGHT,GjsIDH71Nd,LS8774,"",WAGO,CADIL,BG
43,4,NY,0,0,0,"",NORTHERN BLVD.(E/B)@,-73.77711,-74.69721,"",01:35:00,1,7,FAILURE TO STOP AT RED LIGHT,PUWEQkqLsw,FCN5008,"",SUBN,LEXUS,BK
1704,123,TN,0,0,0,"",WEST ST.(N/B)@HOUSTO,-56.215267,-92.0465,"",07:43:00,1,7,FAILURE TO STOP AT RED LIGHT,qEB8vbzSA8,U106537,"",FB,UTIL,SIL
75,7,NY,0,0,0,"",MILFORD DRIVE (E/B)@,-76.12378,-79.71273,"",08:22:00,1,7,FAILURE TO STOP AT RED LIGHT,SskIPgWSK8,GGV9571,"",4DSD,DODGE,GY
17,1,NY,0,0,0,"",HYLAN BLVD (E/B) @ B,-71.1378,-72.28245,"",08:25:00,1,7,FAILURE TO STOP AT RED LIGHT,n3DV3fiK4T,GFN5262,"",4DSD,MITSU,BK
34,3,NY,0,0,0,"",VICTORY BLVD (E/B) @,-73.20955,-75.05021,"",08:30:00,1,7,FAILURE TO STOP AT RED LIGHT,E46kCSY4C1,FAH7680,"",SUBN,TOYOT,BK
1983,303,SC,0,0,0,"",SEAGIRT BLVD.(W/B)@B,-60.40002,-79.12055,"",02:57:00,1,7,FAILURE TO STOP AT RED LIGHT,MihyunNW8W,IJV291,"",SU,GMC,""
15,1,NY,0,0,0,"",VICTORY BLVD (E/B) @,-70.82691,-73.720856,"",08:58:00,1,7,FAILURE TO STOP AT RED LIGHT,wMfvKU4hsd,EXL9301,"",SUBN,NISSA,GY
33,3,NY,0,0,0,"",QUEENS BLVD.(E/B)@39,-72.639755,-75.1852,"",09:19:00,1,7,FAILURE TO STOP AT RED LIGHT,YL6aE810R4,6A82A,"",TAXI,FORD,YW
32,3,NY,0,0,0,"",ROCKAWAY BLVD. (S/B),-72.527596,-74.53625,"",20:22:00,1,7,FAILURE TO STOP AT RED LIGHT,jNeISI0d7p,T627483C,"","",FORD,YW
21,2,NY,0,0,0,"",MILFORD DRIVE (E/B)@,-71.41661,-73.100624,"",09:32:00,1,7,FAILURE TO STOP AT RED LIGHT,YnSezhQxxC,ESC1048,"",4DSD,ACURA,BK
22,2,NY,0,0,0,"",CONEY ISLAND AVE.(S/,-71.02437,-72.893616,"",10:05:00,1,7,FAILURE TO STOP AT RED LIGHT,mbwKx5xKLR,EUZ9106,"",SUBN,HYUND,BK
42,4,NY,0,0,0,"",VICTORY BLVD (E/B) @,-73.99989,-74.5143,"",10:18:00,1,7,FAILURE TO STOP AT RED LIGHT,cnJUXtGYV0,GGW9040,"",4DSD,DODGE,WH
74,7,NY,0,0,0,"",BEACH CHANNEL DR.(W/,-76.293976,-79.33418,"",08:10:00,1,7,FAILURE TO STOP AT RED LIGHT,s2vrCq40xK,84091JD,"","",TOYOT,RD
71,7,NY,0,0,0,"",HORACE HARDING EXPWY,-76.37116,-78.34279,"",10:20:00,1,7,FAILURE TO STOP AT RED LIGHT,gpm6YtX6U0,EUM7177,"",4DSD,TOYOT,GY
519,618,NJ,0,0,0,"",WEST ST.  (S/B) @  W,-52.951157,-104.149704,"",11:01:00,1,7,FAILURE TO STOP AT RED LIGHT,Rk79oLw0uU,Z53CNR,"",WAGO,FORD,BLK
66,6,NY,0,0,0,"",EASTERN PKWY (W/B)@B,-75.95127,-77.04555,"",18:55:00,1,7,FAILURE TO STOP AT RED LIGHT,m5hiNgnYH9,T605192C,"","",FORD,WHITE
51,5,NY,0,0,0,"",WEST ST.  (S/B) @  W,-75.71565,-77.54906,"",08:33:00,1,7,FAILURE TO STOP AT RED LIGHT,ucDEJsaPdY,FDZ3891,"",4DSD,NISSA,WH
1130,1221,NJ,0,0,0,"",WEST ST.  (S/B) @  W,-57.362244,-113.06798,"",09:56:00,1,7,FAILURE TO STOP AT RED LIGHT,zUeTmgfG8o,L80CKW,"",4 DR,CADIL,GD
57,5,NY,0,0,0,"",ATLANTIC AVE.(W/B)@P,-75.663025,-76.81788,"",11:25:00,1,7,FAILURE TO STOP AT RED LIGHT,GhDcNCOROe,FAH3952,"",4DSD,NISSA,GY
46,4,NY,0,0,0,"",ATLANTIC AVE.(W/B)@P,-72.14568,-75.76912,"",13:25:00,1,7,FAILURE TO STOP AT RED LIGHT,LtRD64Il5I,GFD8068,"",4DSD,CHRYS,BK
31,3,NY,0,0,0,"",ATLANTIC AVE.(W/B)@P,-72.71198,-75.56217,"",23:36:00,1,7,FAILURE TO STOP AT RED LIGHT,YFapbMI9KV,554597,"",SUBN,CHRYS,GY
13,1,NY,0,0,0,"",WHITE PLAINS RD.(S/B,-71.748405,-72.490166,"",22:57:00,1,7,FAILURE TO STOP AT RED LIGHT,GhdMR0j5oy,EXT1319,"","",ACURA,BLK
21,2,NY,0,0,0,"",WOODHAVEN BLVD.(N/B),-71.22366,-72.17926,"",16:13:00,1,7,FAILURE TO STOP AT RED LIGHT,jtqUBDFTTA,EUT4116,"",4DSD,HYUND,BL
14,1,NY,0,0,0,"",OCEAN PKWY(N/B)@AVE.,-71.5285,-73.81578,"",12:27:00,1,7,FAILURE TO STOP AT RED LIGHT,DqI2Mtfaa4,GFP6692,"",4DSD,LEXUS,GY
35,3,NY,0,0,0,"",WILLIAMSBURG ST.(S/B,-72.350105,-74.35767,"",01:04:00,1,7,FAILURE TO STOP AT RED LIGHT,5gqGqgT4OY,9G80A,"",TAXI,TOYOT,YW
41,4,NY,0,0,0,"",PENNSYLVANIA AVE.(S/,-72.85672,-74.7107,"",01:07:00,1,7,FAILURE TO STOP AT RED LIGHT,WZ9SmGnQAz,T617355C,"",4DSD,LINCO,GY
26,2,NY,0,0,0,"",HORACE HARDING EXPWY,-70.638245,-72.32823,"",04:31:00,1,7,FAILURE TO STOP AT RED LIGHT,nL1MjEi4Vy,T524808C,"","",FORD,BLK
62,6,NY,0,0,0,"",HMLTN AVE. (N)@CLINT,-74.83067,-77.60964,"",04:55:00,1,7,FAILURE TO STOP AT RED LIGHT,4U4ZAEfGXH,45SA91,"","",SUZUK,BLK/W
57,5,NY,0,0,0,"",OCEAN PKWY(N/B)@AVE.,-74.64747,-76.82573,"",21:41:00,1,7,FAILURE TO STOP AT RED LIGHT,nFcv6F8doB,GRAFLK,"",SUBN,MAZDA,GY
66,6,NY,0,0,0,"",PENNSYLVANIA AVE.(S/,-74.1482,-76.09067,"",21:39:00,1,7,FAILURE TO STOP AT RED LIGHT,WC2SggHa7V,GDY5118,"","",NISSA,BK
73,7,NY,0,0,0,"",SO. CONDUIT AVE. (E/,-77.49477,-79.12838,"",21:45:00,1,7,FAILURE TO STOP AT RED LIGHT,rVYKOz4IDg,GCY6398,"",SUBN,JEEP,GR
73,7,NY,0,0,0,"",BRONXDALE AVE. (W/B),-76.17789,-78.2475,"",21:29:00,1,7,FAILURE TO STOP AT RED LIGHT,8u5PCuB2cS,EWD7061,"",4DSD,TOYOT,TN
1249,131,NJ,0,0,0,"",PENNSYLVANIA AVE.(S/,-57.415817,-98.66106,"",21:46:00,1,7,FAILURE TO STOP AT RED LIGHT,VAAZWNee3I,R71CNL,"",4 DR,FORD,RD
35,3,NY,0,0,0,"",3RD AVE.(S/B)@E. 135,-72.39069,-74.87781,"",21:42:00,1,7,FAILURE TO STOP AT RED LIGHT,a3gTnMpMWf,GFC6685,"","",TOYOT,GY
1835,1273,NJ,0,0,0,"",ARTHUR KILL RD.(W/B),-55.363632,-102.933975,"",21:51:00,1,7,FAILURE TO STOP AT RED LIGHT,135YTq1kl9,H52CHB,"",4 DR,HONDA,BK
13,1,NY,0,0,0,"",BORDEN AVE.(E/B)@GRE,-70.81699,-72.10474,"",21:49:00,1,7,FAILURE TO STOP AT RED LIGHT,uJXfeILw45,ERJ6345,"",SUBN,FORD,BK
67,6,NY,0,0,0,"",PENNSYLVANIA AVE.(S/,-74.42695,-76.525055,"",21:51:00,1,7,FAILURE TO STOP AT RED LIGHT,6xY3HOIb8o,ETN5103,"",SUBN,LINCO,BK
53,5,NY,0,0,0,"",S. CONDUIT AVE.(E/B),-75.69281,-76.54887,"",21:55:00,1,7,FAILURE TO STOP AT RED LIGHT,8g3gwxsBGa,GER7205,"",4DSD,HONDA,GYBK
16,1,NY,0,0,0,"",E. FORDHAM RD.(E/B)@,-70.756805,-72.27764,"",21:57:00,1,7,FAILURE TO STOP AT RED LIGHT,gQ3VGb1Mlq,GBF8851,"",SUBN,KIA,WH
67,6,NY,0,0,0,"",BROADWAY (S/B) @ SHE,-75.95955,-77.66777,"",21:59:00,1,7,FAILURE TO STOP AT RED LIGHT,MARACUKB20,EMR3538,"",4DSD,CHEVR,WH
51,5,NY,0,0,0,"",SO. CONDUIT AVE. (E/,-74.059166,-76.46701,"",22:01:00,1,7,FAILURE TO STOP AT RED LIGHT,a2NbiBphTf,ENG3021,"",4DSD,ACURA,GY
24,2,NY,0,0,0,"",12TH AVE.(S/B) @ 23T,-71.78112,-72.38033,"",21:07:00,1,7,FAILURE TO STOP AT RED LIGHT,T6WHiDD8hZ,EEH1041,"",SUBN,PORSC,WH
179,308,NJ,0,0,0,"",EASTERN PKWY (W/B)@B,-63.632145,-99.707855,"",22:05:00,1,7,FAILURE TO STOP AT RED LIGHT,hkE5wCXlVf,WYZ31R,"",4 DR,NISSA,GY
56,5,NY,0,0,0,"",NORTHERN BLVD.(E/B)@,-75.742584,-77.59309,"",21:57:00,1,7,FAILURE TO STOP AT RED LIGHT,Ec69a3jYm4,50901JX,"",VAN,GMC,WH
75,7,NY,0,0,0,"",EASTERN PKWY(W/B)@HO,-77.82623,-78.94514,"",22:10:00,1,7,FAILURE TO STOP AT RED LIGHT,gUfnt5K8YP,GEF7868,"","",DODGE,BK
42,4,NY,0,0,0,"",QUEENS BLVD. (W/B) @,-72.89445,-74.745705,"",22:10:00,1,7,FAILURE TO STOP AT RED LIGHT,OneA0xLwvy,6B98H,"",TAXI,TOYOT,YW
22,2,NY,0,0,0,"",VAN WYCK EXP.SVC. RD,-71.605965,-73.609985,"",22:09:00,1,7,FAILURE TO STOP AT RED LIGHT,q8wDqfnWIl,GHM2134,"","",FORD,BK
64,6,NY,0,0,0,"",3RD AVE.(S/B)@E. 135,-75.30651,-76.99281,"",22:14:00,1,7,FAILURE TO STOP AT RED LIGHT,rrxKYFbIBd,T631834C,"",4DSD,TOYOT,WH
790,950,NJ,0,0,0,"",ATLANTIC AVE.(W/B)@K,-63.87042,-72.935555,"",22:14:00,1,7,FAILURE TO STOP AT RED LIGHT,H5eeFa2VZA,YUE48C,"",4 DR,TOYOT,BK
1622,1133,IL,0,0,0,"",3RD AVE.(S/B)@E. 135,-52.954758,-73.83325,"",22:15:00,1,7,FAILURE TO STOP AT RED LIGHT,68ZRxr0Fst,9213600,"",SEDA,CHEVR,BLK
52,5,NY,0,0,0,"",ATLANTIC AVE.(W/B)@K,-75.47575,-76.96316,"",22:27:00,1,7,FAILURE TO STOP AT RED LIGHT,UB3QI1lI3i,FCJ6120,"","",JEEP,BK
51,5,NY,0,0,0,"",CAPODANNO BLVD.(N/B),-74.9903,-76.94687,"",22:26:00,1,7,FAILURE TO STOP AT RED LIGHT,uOYAGOeuG3,FBL4103,"",2DSD,TOYOT,BK
26,2,NY,0,0,0,"",ASTORIA BLVD. (E/B),-70.87704,-72.33194,"",22:30:00,1,7,FAILURE TO STOP AT RED LIGHT,MHWepB9Q7m,GFK9869,"",4DSD,HONDA,BK
54,5,NY,0,0,0,"",ATLANTIC AVE.(W/B)@K,-75.39941,-76.92713,"",22:32:00,1,7,FAILURE TO STOP AT RED LIGHT,oUZhnrgOMy,GFC7455,"",4DSD,FORD,WH
22,2,NY,0,0,0,"",ROCKAWAY PKWY. (S/B),-70.26788,-73.60399,"",22:33:00,1,7,FAILURE TO STOP AT RED LIGHT,6ceyvKhwzg,GAR5294,"","",NISSA,BK
56,5,NY,0,0,0,"",WHITE PLAINS RD.(S/B,-75.64376,-76.24167,"",22:24:00,1,7,FAILURE TO STOP AT RED LIGHT,i7PyiqSZNS,EPX1139,"",SUBN,BUICK,GY
47,4,NY,0,0,0,"",EASTERN PKWY (W/B)@B,-72.28111,-74.37271,"",22:39:00,1,7,FAILURE TO STOP AT RED LIGHT,hgAmHgx8Kp,GFV7977,"","",CHEVR,RD
65,6,NY,0,0,0,"",CROSSBAY BLVD.(S/B)@,-74.51991,-76.82296,"",22:41:00,1,7,FAILURE TO STOP AT RED LIGHT,chwYuRraQX,T630953C,"",4DSD,LINCO,BK
11,1,NY,0,0,0,"",3RD AVE.(N/B)@36TH S,-70.0137,-73.11681,"",18:53:00,1,7,FAILURE TO STOP AT RED LIGHT,hMPycSjIKu,7Y86A,"",TAXI,FORD,YW
71,7,NY,0,0,0,"",REMSEN AVE.(N/B)@WIN,-76.05707,-78.3354,"",22:45:00,1,7,FAILURE TO STOP AT RED LIGHT,ku8PGb5PrS,GCB1698,"",4DSD,TOYOT,WH
15,1,NY,0,0,0,"",E. 135TH ST. (W)@ AL,-70.17362,-72.4686,"",22:47:00,1,7,FAILURE TO STOP AT RED LIGHT,0RtTgRhASb,GBJ4564,"","",CHEVR,TN
54,5,NY,0,0,0,"",HORACE HARDING EXPWY,-74.232216,-77.092804,"",22:48:00,1,7,FAILURE TO STOP AT RED LIGHT,AJQRDCLx1s,GAJ1666,"",SUBN,TOYOT,WH
605,1043,NJ,0,0,0,"",PENNSYLVANIA AVE.(S/,-57.792755,-81.964066,"",22:51:00,1,7,FAILURE TO STOP AT RED LIGHT,vperlTy3HE,YJE98E,"",2 DR,LEXUS,WT
33,3,NY,0,0,0,"",ATLANTIC AVE.(W/B)@K,-73.50744,-74.549866,"",22:42:00,1,7,FAILURE TO STOP AT RED LIGHT,MORwgkmLRp,GDM5298,"",4DSD,HYUND,GY
26,2,NY,0,0,0,"",CADMAN PLAZA(E/B)@PR,-70.82565,-73.43891,"",22:51:00,1,7,FAILURE TO STOP AT RED LIGHT,vssnBR1Eyy,GGF4345,"","",OLDSM,BK
21,2,NY,0,0,0,"",MCDONALD AVE.(S/B)@V,-70.35337,-72.48456,"",22:52:00,1,7,FAILURE TO STOP AT RED LIGHT,bBetQUdMv9,T511380C,"","",CHEVR,BK
76,7,NY,0,0,0,"",E. 135TH ST. (W)@ AL,-76.83119,-79.546745,"",22:48:00,1,7,FAILURE TO STOP AT RED LIGHT,XGG8HXm8Hx,GHF4224,"",SUBN,NISSA,BK
16,1,NY,0,0,0,"",WHITESTONE EXPWY.SVC,-70.42301,-72.488846,"",22:56:00,1,7,FAILURE TO STOP AT RED LIGHT,bHVNO7sqkH,GFH7116,"",2DSD,FORD,WH
1406,1231,NJ,0,0,0,"",ATLANTIC AVE.(W/B)@K,-56.794434,-90.66706,"",23:03:00,1,7,FAILURE TO STOP AT RED LIGHT,hO3DK4rNd7,N85BAZ,"",PKUP,DODGE,WT
57,5,NY,0,0,0,"",QUEENS BLVD. (W/B) @,-75.539764,-77.884766,"",23:02:00,1,7,FAILURE TO STOP AT RED LIGHT,Kt89hO4ZxC,EUE8236,"","",TOYOT,TN
23,2,NY,0,0,0,"",BROADWAY (S/B) @ SHE,-70.6696,-73.676575,"",23:09:00,1,7,FAILURE TO STOP AT RED LIGHT,Al3C1BfRyg,ETG3779,"",SUBN,ME/BE,BK
66,6,NY,0,0,0,"",WEST ST.  (S/B) @  W,-74.16395,-76.683105,"",23:17:00,1,7,FAILURE TO STOP AT RED LIGHT,ra1pcc2MlP,GJC2840,"",4DSD,HONDA,GY
77,7,NY,0,0,0,"",BRUCKNER BLVD.(E/B)@,-77.18997,-78.568245,"",23:04:00,1,7,FAILURE TO STOP AT RED LIGHT,8SJk8p4maM,49448BA,"","",MCI,WH
33,3,NY,0,0,0,"",VAN WYCK EXP.SVC. RD,-72.50173,-74.70189,"",23:19:00,1,7,FAILURE TO STOP AT RED LIGHT,wEY46h36N6,T613182C,"",4DSD,LINCO,BL
184,1382,OH,0,0,0,"",ATLANTIC AVE. (W/B)@,-69.28412,-95.97456,"",23:11:00,1,7,FAILURE TO STOP AT RED LIGHT,YEzXdPCzpb,EQG1996,"",SW,NISSA,GOLD
22,2,NY,0,0,0,"",EASTERN PKWY.(E)@UTI,-70.92062,-72.46187,"",23:19:00,1,7,FAILURE TO STOP AT RED LIGHT,3Yv74ZcQSd,GFV5267,"",4DSD,MAZDA,GY
12,1,NY,0,0,0,"",ATLANTIC AVE.(W/B)@K,-71.033806,-72.76667,"",23:32:00,1,7,FAILURE TO STOP AT RED LIGHT,gjHt0dYCGp,EXV7938,"","",NISSA,RD
1747,726,IL,0,0,0,"",MCDONALD AVE.(S/B)@V,-68.35453,-124.34236,"",22:41:00,1,7,FAILURE TO STOP AT RED LIGHT,wmNXiMGQeX,N569483,"",CONV,FORD,""
72,7,NY,0,0,0,"",YORK AVE. (N/B) @ E.,-76.142685,-78.50109,"",23:33:00,1,7,FAILURE TO STOP AT RED LIGHT,BPEA6DQAZa,7Y67H,"",TAXI,FORD,YW
382,1225,VA,0,0,0,"",FLATBUSH AVE.(N/B) @,-57.29122,-71.4004,"",23:36:00,1,7,FAILURE TO STOP AT RED LIGHT,kdRAwy7eHz,WVL3417,"",4D,CHRYS,BLU
25,2,NY,0,0,0,"",ATLANTIC AVE.(W/B)@K,-70.68502,-73.93871,"",23:39:00,1,7,FAILURE TO STOP AT RED LIGHT,mYXTQBz8zr,EXN6362,"",4DSD,ME/BE,WH
22,2,NY,0,0,0,"",NARROWS RD.(W/B)@CLO,-71.471954,-73.21557,"",23:45:00,1,7,FAILURE TO STOP AT RED LIGHT,ojh0GXfWVv,GFG6737,"",SUBN,CHEVR,WH
74,7,NY,0,0,0,"",QUEENS MIDTOWN EXPWY,-76.383224,-78.13898,"",23:44:00,1,7,FAILURE TO STOP AT RED LIGHT,AqbHjXXpsu,49503MC,"",VAN,WHITE,WH
77,7,NY,0,0,0,"",SO. CONDUIT AVE. (E/,-76.60385,-79.897285,"",23:47:00,1,7,FAILURE TO STOP AT RED LIGHT,2pxlbk4AhH,T601829C,"",SUBN,TOYOT,BK
17,1,NY,0,0,0,"",QUEENS BLVD.(E/B)@70,-70.35847,-73.365616,"",23:49:00,1,7,FAILURE TO STOP AT RED LIGHT,BJJlLyEJxk,GFT7168,"",SUBN,HONDA,GY
41,4,NY,0,0,0,"",CADMAN PLAZA(E/B)@PR,-72.74333,-75.95956,"",23:51:00,1,7,FAILURE TO STOP AT RED LIGHT,nNaoZZaC5T,ENJ3268,"","",GMC,GY
35,3,NY,0,0,0,"",CADMAN PLAZA(E/B)@PR,-72.758354,-74.38148,"",23:57:00,1,7,FAILURE TO STOP AT RED LIGHT,vW30ay0ABd,T628837C,"",SUBN,ACURA,BK
2081,1297,CT,0,0,0,"",SO. CONDUIT AVE. (E/,-57.87359,-76.06005,"",12:03:00,1,7,FAILURE TO STOP AT RED LIGHT,0PRsHn3Hry,554YWW,"","",FORD,WH
34,3,NY,0,0,0,"",CONEY ISLAND AVE.(S/,-72.320045,-74.96954,"",12:04:00,1,7,FAILURE TO STOP AT RED LIGHT,UNaMO2zGZu,GGP8289,"",SUBN,TOYOT,BK
62,6,NY,0,0,0,"",KISSENA BLVD.(S/B)@B,-74.06621,-77.06774,"",12:04:00,1,7,FAILURE TO STOP AT RED LIGHT,yxhIVauodp,GCX5625,"",4DSD,HONDA,GY
24,2,NY,0,0,0,"",12TH AVE.(S/B) @ 34T,-70.782845,-72.04732,"",12:16:00,1,7,FAILURE TO STOP AT RED LIGHT,epVgc6oVjj,GBH6868,"",SUBN,NISSA,GY
76,7,NY,0,0,0,"",QUEENS MIDTOWN EXPWY,-77.11732,-79.78978,"",12:18:00,1,7,FAILURE TO STOP AT RED LIGHT,FlEqM7fGEc,T630133C,"",4DSD,TOYOT,GY
74,7,NY,0,0,0,"",3RD AVE.(S/B)@E. 135,-76.56432,-78.24178,"",12:21:00,1,7,FAILURE TO STOP AT RED LIGHT,ngcytiYz0T,GBX6162,"","",NISSA,TN
34,3,NY,0,0,0,"",E. 135TH ST. (W)@ AL,-73.24225,-74.73635,"",12:21:00,1,7,FAILURE TO STOP AT RED LIGHT,xK2kbQoI7n,T635188C,"",SUBN,TOYOT,BK
44,4,NY,0,0,0,"",WOODHAVEN BLVD.(N/B),-73.61409,-74.29212,"",12:21:00,1,7,FAILURE TO STOP AT RED LIGHT,lvt82qM5Wq,GFK6633,"",SUBN,ME/BE,WH
71,7,NY,0,0,0,"",OCEAN PKWY.(N/B)@AVE,-76.51074,-78.92966,"",12:24:00,1,7,FAILURE TO STOP AT RED LIGHT,0nku1mFV1b,GDP4269,"",4DSD,NISSA,RD
31,3,NY,0,0,0,"",PENNSYLVANIA AVE.(S/,-72.85923,-75.14741,"",12:30:00,1,7,FAILURE TO STOP AT RED LIGHT,bA5YV0gZdR,ELW7780,"","",DODGE,GY
63,6,NY,0,0,0,"",CONEY ISLAND AVE.(S/,-75.37603,-76.240776,"",12:32:00,1,7,FAILURE TO STOP AT RED LIGHT,92TZSlrzVX,EYC5249,"",SUBN,HONDA,BK
61,6,NY,0,0,0,"",BORDEN AVE.(E/B)@GRE,-75.15544,-76.12638,"",12:36:00,1,7,FAILURE TO STOP AT RED LIGHT,IeLEc3EKfY,ELN5469,"",SUBN,CADIL,BL
53,5,NY,0,0,0,"",WEST ST.(N/B)@HOUSTO,-74.56538,-77.74954,"",12:38:00,1,7,FAILURE TO STOP AT RED LIGHT,1JTXNcCwCj,GGV3480,"",4DSD,HONDA,WH
17,1,NY,0,0,0,"",CONEY ISLAND AVE.(S/,-70.15801,-72.00661,"",22:36:00,1,7,FAILURE TO STOP AT RED LIGHT,lbN1loJHDu,8484,"",SUBN,HONDA,BK
62,6,NY,0,0,0,"",NORTHERN BLVD.  (E/B,-75.409966,-76.404724,"",12:11:00,1,7,FAILURE TO STOP AT RED LIGHT,Zv5jUTpYux,90194JA,"",VAN,FORD,LTGY
71,7,NY,0,0,0,"",VICTORY BLVD (E/B) @,-77.02668,-78.41007,"",12:38:00,1,7,FAILURE TO STOP AT RED LIGHT,3mPrzAoPnn,65858MD,"",VAN,FORD,RD
66,6,NY,0,0,0,"",BORDEN AVE.(E/B)@GRE,-74.27821,-76.60187,"",12:43:00,1,7,FAILURE TO STOP AT RED LIGHT,D3iEnRuLlA,T628044C,"",SUBN,CHEVR,BK
64,6,NY,0,0,0,"",VAN WYCK EXP.SVC. RD,-74.378334,-77.35254,"",01:00:00,1,7,FAILURE TO STOP AT RED LIGHT,VQsHX2lP4C,GFC6791,"","",FORD,WH
57,5,NY,0,0,0,"",HORACE HARDING EXPWY,-74.276474,-77.79595,"",01:01:00,1,7,FAILURE TO STOP AT RED LIGHT,vLIUg5ctRP,75631MB,"",VAN,FORD,WH
1399,219,NJ,0,0,0,"",REMSEN AVE.(N/B)@WIN,-54.017937,-106.40306,"",01:04:00,1,7,FAILURE TO STOP AT RED LIGHT,oc2k0quMfI,E30CEZ,"",4 DR,NISSA,BK
34,3,NY,0,0,0,"",E. 135TH ST. (W)@ AL,-72.8813,-75.76595,"",12:20:00,1,7,FAILURE TO STOP AT RED LIGHT,Hdl9vOnZfz,8C91H,"",TAXI,TOYOT,YW
23,2,NY,0,0,0,"",FRANCIS LEWIS BLVD.(,-71.54858,-72.76571,"",12:37:00,1,7,FAILURE TO STOP AT RED LIGHT,ozzzgMXU9w,SAYDEE,"",CONV,BMW,WH
1754,332,NJ,0,0,0,"",MCDONALD AVE.(S/B)@V,-66.673256,-115.33722,"",23:32:00,1,7,FAILURE TO STOP AT RED LIGHT,YuyzkN0ypn,T48Y8F,"",TRL,UTL,""
16,1,NY,0,0,0,"",S. CONDUIT AVE.(E/B),-71.71382,-72.31624,"",01:09:00,1,7,FAILURE TO STOP AT RED LIGHT,DM548PhQdN,GFD8362,"","",NISSA,GY
53,5,NY,0,0,0,"",QUEENS MIDTOWN EXPWY,-75.79467,-77.35861,"",01:06:00,1,7,FAILURE TO STOP AT RED LIGHT,jH13ftY5XR,T612549C,"","",TOYOT,BL
47,4,NY,0,0,0,"",FLATBUSH AVE(S/B)@AV,-73.321335,-75.68497,"",01:14:00,1,7,FAILURE TO STOP AT RED LIGHT,jYKVHrjQv2,T632773C,"",SUBN,CHEVR,BK
43,4,NY,0,0,0,"",QUEENS BLVD.(W/B)@BR,-72.420204,-74.51211,"",01:21:00,1,7,FAILURE TO STOP AT RED LIGHT,bl4RxITjrk,T525260C,"",4DSD,LINCO,BL
63,6,NY,0,0,0,"",ATLANTIC AVE.(W/B)@K,-75.22695,-77.52892,"",01:24:00,1,7,FAILURE TO STOP AT RED LIGHT,tKTimq9ajk,T628364C,"",4DSD,LINCO,WH
56,5,NY,0,0,0,"",PENNSYLVANIA AVE.(N/,-74.69644,-76.47126,"",01:30:00,1,7,FAILURE TO STOP AT RED LIGHT,2I88z4PpGK,EFR1847,"",2DSD,ACURA,BK
34,3,NY,0,0,0,"",PENNSYLVANIA AVE.(N/,-73.854095,-75.19504,"",01:31:00,1,7,FAILURE TO STOP AT RED LIGHT,31nbxZxpOa,GEZ3592,"","",HONDA,GR
1083,470,NJ,0,0,0,"",HORACE HARDING EXPWY,-65.22382,-114.72721,"",01:15:00,1,7,FAILURE TO STOP AT RED LIGHT,0WUUhpqvVQ,K83DBP,"",WAGO,GMC,TN
41,4,NY,0,0,0,"",ALLERTON AVE.(E/B)@W,-73.47579,-75.69654,"",01:39:00,1,7,FAILURE TO STOP AT RED LIGHT,46KFqZowRd,GEX9442,"",2DSD,HONDA,GY
44,4,NY,0,0,0,"",PENNSYLVANIA AVE.(N/,-72.71016,-74.533676,"",01:42:00,1,7,FAILURE TO STOP AT RED LIGHT,FMCCwT2DtZ,FES3527,"","",CHEVR,BL
715,638,NJ,0,0,0,"",QUEENS BLVD.(W/B)@BR,-60.57077,-119.24242,"",01:57:00,1,7,FAILURE TO STOP AT RED LIGHT,qKZcLexbZh,ZRD15E,"",WAGO,AUDI,GY
75,7,NY,0,0,0,"",3RD AVE.(S/B)@E. 135,-76.73168,-78.024315,"",01:54:00,1,7,FAILURE TO STOP AT RED LIGHT,YVY6eJ0rwL,GDN8097,"",4DSD,BMW,BK
37,3,NY,0,0,0,"",ATLANTIC AVE.(E/B)@L,-72.57184,-75.52454,"",02:04:00,1,7,FAILURE TO STOP AT RED LIGHT,Mugvyyht0u,GEF9918,"","",FORD,WH
35,3,NY,0,0,0,"",CLOVE RD.(N/B)@BARD,-73.709305,-75.90423,"",12:58:00,1,7,FAILURE TO STOP AT RED LIGHT,kjJtyG4MIb,GGW7686,"",4DSD,ME/BE,GY
57,5,NY,0,0,0,"",QUEENS MIDTOWN EXPWY,-75.20832,-76.11709,"",01:24:00,1,7,FAILURE TO STOP AT RED LIGHT,JS4n7MiMNK,GEN7849,"",4DSD,MITSU,RD
64,6,NY,0,0,0,"",ASTORIA BLVD.(W/B)@S,-75.814545,-76.35963,"",01:48:00,1,7,FAILURE TO STOP AT RED LIGHT,8qHbWibR9b,94287JW,"","",STERL,WH
32,3,NY,0,0,0,"",WHITE PLAINS RD.(S/B,-73.3771,-75.54308,"",02:10:00,1,7,FAILURE TO STOP AT RED LIGHT,IVnr3fi4Yi,GBX8304,"","",NISSA,TN
56,5,NY,0,0,0,"",3RD AVE.(N/B)@36TH S,-74.73897,-76.68674,"",02:22:00,1,7,FAILURE TO STOP AT RED LIGHT,I2lroqZgw4,55267MD,"",VAN,ISUZU,BK
75,7,NY,0,0,0,"",QUEENS MIDTOWN EXPWY,-77.93589,-79.68761,"",02:29:00,1,7,FAILURE TO STOP AT RED LIGHT,wAzc5547wj,T632459C,"",4DSD,LINCO,RD
23,2,NY,0,0,0,"",HOYT AVE.(S/B)@31ST,-71.401306,-72.46257,"",02:31:00,1,7,FAILURE TO STOP AT RED LIGHT,ioTcYDZhWS,G424KN,"","",DODGE,WH
31,3,NY,0,0,0,"",3RD AVE.(S/B)@E. 135,-73.54494,-75.437485,"",02:39:00,1,7,FAILURE TO STOP AT RED LIGHT,xBDam7NUXp,6H44A,"",TAXI,FORD,YW
2015,1098,GA,0,0,0,"",HORACE HARDING EXPWY,-55.54751,-91.28067,"",02:14:00,1,7,FAILURE TO STOP AT RED LIGHT,I4pHm1nTqJ,PCC6455,"",4S,CHEVR,WHI
1466,103,MD,0,0,0,"",BEACH CHANNEL DR.(W/,-55.67322,-85.86848,"",17:15:00,1,7,FAILURE TO STOP AT RED LIGHT,QK8IYiDADR,9AV9510,"",4S,CHEVR,""
31,3,NY,0,0,0,"",FATHER CAPODANNO BLV,-72.4587,-75.62136,"",17:09:00,1,7,FAILURE TO STOP AT RED LIGHT,T7yQZoeq41,563414,"",SUBN,LINCO,LTBL
1912,246,NJ,0,0,0,"",E. 135TH ST. (W)@ AL,-64.28082,-121.02184,"",17:16:00,1,7,FAILURE TO STOP AT RED LIGHT,Dknn0yi4MV,Y29DBW,"",4 DR,HONDA,BLK
27,2,NY,0,0,0,"",OCEAN PKWY(N/B)@SHOR,-71.2788,-72.117,"",17:19:00,1,7,FAILURE TO STOP AT RED LIGHT,VD6R1JADC6,T614813C,"",4DSD,TOYOT,BL
61,6,NY,0,0,0,"",NORTHERN BLVD.(E/B)@,-74.846245,-77.092224,"",17:19:00,1,7,FAILURE TO STOP AT RED LIGHT,69De3RMw3W,GBC5966,"",SUBN,INFIN,GL
42,4,NY,0,0,0,"",OCEAN PKWY.(S/B)@AVE,-73.37951,-74.59044,"",17:21:00,1,7,FAILURE TO STOP AT RED LIGHT,CEAjlHysMe,GCM2949,"",4DSD,LEXUS,GY
2032,1058,NJ,0,0,0,"",2ND AVE.(S/B)@26TH S,-58.538662,-116.47792,"",17:16:00,1,7,FAILURE TO STOP AT RED LIGHT,7QyHMdsayU,XX827S,"",PKUP,CHEVR,WHITE
32,3,NY,0,0,0,"",8TH AVE.(N/B)@57TH S,-72.17311,-74.222946,"",17:20:00,1,7,FAILURE TO STOP AT RED LIGHT,tuKE20YFPK,8K28B,"",TAXI,FORD,YW
26,2,NY,0,0,0,"",86TH ST. (E)@7TH AVE,-71.01614,-72.41892,"",17:22:00,1,7,FAILURE TO STOP AT RED LIGHT,AinrLeJwkA,GCE3363,"",4DSD,LINCO,GY
54,5,NY,0,0,0,"",BEACH CHANNEL DR.(W/,-75.68939,-76.32527,"",17:22:00,1,7,FAILURE TO STOP AT RED LIGHT,9kxvzGWWW5,GEE2095,"",4DSD,HONDA,WH
27,2,NY,0,0,0,"",BEACH CHANNEL DR.(W/,-71.76659,-73.841324,"",17:25:00,1,7,FAILURE TO STOP AT RED LIGHT,uR9AklWlo2,75045JX,"","",CHEVR,WH
1399,726,CT,0,0,0,"",ATLANTIC AVE.(E/B) @,-55.299053,-121.6139,"",17:25:00,1,7,FAILURE TO STOP AT RED LIGHT,cZ8xZQMzos,553ZVD,"","",GMC,WH
75,7,NY,0,0,0,"",CONEY ISLAND AVE.(S/,-76.2714,-79.24528,"",17:26:00,1,7,FAILURE TO STOP AT RED LIGHT,Qd0ITDa1nw,GGZ8203,"",4DSD,KIA,WH
26,2,NY,0,0,0,"",EASTERN PKWY(W/B)@HO,-71.37095,-72.44374,"",17:26:00,1,7,FAILURE TO STOP AT RED LIGHT,Vz2SwOUtWQ,ROKAPUCO,"",PICK,NISSA,WH
31,3,NY,0,0,0,"",WHITESTONE EXPWY.SVC,-73.7371,-74.45136,"",17:26:00,1,7,FAILURE TO STOP AT RED LIGHT,JrfRmB1BlF,GAX3122,"",SUBN,BMW,BL
31,3,NY,0,0,0,"",QUEENS BLVD.(E/B)@39,-72.67932,-74.09196,"",17:25:00,1,7,FAILURE TO STOP AT RED LIGHT,afzIlbZmdH,W588JD,"",SUBN,LEXUS,BL
17,1,NY,0,0,0,"",PARK AVE.(W/B)@WASHI,-70.57542,-73.36184,"",17:28:00,1,7,FAILURE TO STOP AT RED LIGHT,yzECXCoUBO,Z195WM,"",SUBN,VOLVO,TN
15,1,NY,0,0,0,"",QUEENS BLVD.(W/B)@JA,-70.804924,-72.41406,"",17:30:00,1,7,FAILURE TO STOP AT RED LIGHT,VBIpaniDlv,GDX3268,"",SUBN,BMW,BK
71,7,NY,0,0,0,"",QUEENS BLVD.(E/B)@70,-77.339584,-78.61875,"",17:31:00,1,7,FAILURE TO STOP AT RED LIGHT,LFBRT8nyDU,GGC1155,"",4DSD,ME/BE,BL
65,6,NY,0,0,0,"",CLOVE RD (N/B)@CHESH,-74.1142,-77.28567,"",17:32:00,1,7,FAILURE TO STOP AT RED LIGHT,4KqE3ezbrd,GDY5121,"","",NISSA,GY
2004,1578,MA,0,0,0,"",ROCKAWAY BLVD. (S/B),-58.460274,-104.05025,"",17:31:00,1,7,FAILURE TO STOP AT RED LIGHT,s1la9a9X0t,48PM68,"",HB,VOLKS,""
71,7,NY,0,0,0,"",WOODHAVEN BLVD.(N/B),-76.32862,-78.469246,"",17:32:00,1,7,FAILURE TO STOP AT RED LIGHT,cVxZkczfxX,T527229C,"",4DSD,LINCO,BK
31,3,NY,0,0,0,"",ALLERTON AVE.(E/B)@W,-72.39553,-75.58802,"",17:33:00,1,7,FAILURE TO STOP AT RED LIGHT,G7Q3oUvLT5,T611433C,"",4DSD,TOYOT,GY
1239,682,FL,0,0,0,"",PENNSYLVANIA AVE.(S/,-67.32087,-116.26816,"",17:34:00,1,7,FAILURE TO STOP AT RED LIGHT,cxR3yDofFh,980YER,"",UT,GMC,BGE
34,3,NY,0,0,0,"",WHITESTONE EXPWY.SVC,-72.50802,-74.57608,"",17:34:00,1,7,FAILURE TO STOP AT RED LIGHT,MxdgglzjVC,4E51A,"",4DSD,TOYOT,YW
263,1540,NJ,0,0,0,"",SOUTH AVE.(S/B)@TRAV,-54.115067,-104.32544,"",17:37:00,1,7,FAILURE TO STOP AT RED LIGHT,2DbGppN6HS,L56CAN,"",4 DR,TOYOT,TN
55,5,NY,0,0,0,"",HOYT AVE.(S/B)@31ST,-74.08485,-76.41621,"",17:38:00,1,7,FAILURE TO STOP AT RED LIGHT,8RvcK6KB38,GBV1632,"",SUBN,HYUND,DKGR
25,2,NY,0,0,0,"",KINGS HGWY.(S/B)@REM,-71.19444,-73.94324,"",17:43:00,1,7,FAILURE TO STOP AT RED LIGHT,ORGmyaIE3X,GCW6956,"",4DSD,ME/BE,GY
26,2,NY,0,0,0,"",QUEENS BLVD. (W/B) @,-71.41287,-72.83917,"",17:39:00,1,7,FAILURE TO STOP AT RED LIGHT,sf15MfJVbE,T610753C,"",LIM,LINCO,BK
47,4,NY,0,0,0,"",ASTORIA BLVD.(W/B)@1,-73.448,-75.1633,"",17:43:00,1,7,FAILURE TO STOP AT RED LIGHT,abw0a6Rhh2,GDX6990,"",SUBN,KIA,BL
25,2,NY,0,0,0,"",86TH ST. (E)@7TH AVE,-71.92419,-73.11579,"",17:44:00,1,7,FAILURE TO STOP AT RED LIGHT,m5qYg6qKMV,GDN1334,"",SUBN,HONDA,BL
494,657,IL,0,0,0,"",ATLANTIC AVE.(E/B)@L,-54.02996,-98.078445,"",17:45:00,1,7,FAILURE TO STOP AT RED LIGHT,POnDs8jvIt,R597728,"",CARR,FORD,""
935,1439,NJ,0,0,0,"",ASTORIA BLVD.(W/B)@S,-61.257004,-90.88114,"",17:44:00,1,7,FAILURE TO STOP AT RED LIGHT,KnqyDqfyaK,YNJ33J,"",CON,FORD,BLK
65,6,NY,0,0,0,"",ATLANTIC AVE.(W)@ BE,-74.16743,-76.49458,"",17:49:00,1,7,FAILURE TO STOP AT RED LIGHT,TXY8H0Rhb5,GGF3002,"",SUBN,MAZDA,BK
1017,800,NJ,0,0,0,"",CRS BRNX EXP. (W)@RO,-56.125267,-77.54411,"",17:55:00,1,7,FAILURE TO STOP AT RED LIGHT,33doQCBlJw,R77CMF,"",WAGO,AUDI,BK
1332,1996,CT,0,0,0,"",E. 135TH ST. (W)@ AL,-50.93344,-76.70106,"",17:58:00,1,7,FAILURE TO STOP AT RED LIGHT,asbeVAUyTv,551YPX,"",4D S,TOYOT,GRN
25,2,NY,0,0,0,"",EASTERN PKWY.(E)@UTI,-70.57936,-73.819405,"",17:59:00,1,7,FAILURE TO STOP AT RED LIGHT,a5GFPQfbL0,GDP4245,"",4DSD,HYUND,WH
13,1,NY,0,0,0,"",VICTORY BLVD (E/B) @,-71.661194,-73.21052,"",18:03:00,1,7,FAILURE TO STOP AT RED LIGHT,DJGabEZ7oF,GGT4137,"",SUBN,FORD,BK
66,6,NY,0,0,0,"",FOREST AVE.(W/B)@SOU,-75.743805,-76.150536,"",18:03:00,1,7,FAILURE TO STOP AT RED LIGHT,OsxvTJkZCU,GEW2811,"",4DSD,MITSU,WH
15,1,NY,0,0,0,"",ATLANTIC AVE.(E/B)@P,-70.54568,-72.622696,"",18:04:00,1,7,FAILURE TO STOP AT RED LIGHT,UOtC1ILvmf,GJD2889,"",SUBN,FORD,WH
1392,1206,NJ,0,0,0,"",HMLTN AVE. (N)@CLINT,-60.95748,-89.60129,"",18:09:00,1,7,FAILURE TO STOP AT RED LIGHT,2cHwlgGJ7z,YNF51B,"",4 DR,HONDA,GY
502,991,GA,0,0,0,"",LINDEN BLVD.(W/B)@RO,-50.271507,-111.66899,"",18:05:00,1,7,FAILURE TO STOP AT RED LIGHT,BQXFB0vQl5,PNJ2731,"",CP,CHEVR,BLU
17,1,NY,0,0,0,"",ASTORIA BLVD.(W/B)@1,-71.38686,-72.246994,"",18:13:00,1,7,FAILURE TO STOP AT RED LIGHT,Cei42t91qx,56768MD,"",DUMP,MACK,GRRD
962,287,MD,0,0,0,"",ATLANTIC AVE.(W)@ BE,-64.127365,-80.69645,"",18:15:00,1,7,FAILURE TO STOP AT RED LIGHT,oBkfF9AWqu,4AC2516,"",4S,MAZDA,""
33,3,NY,0,0,0,"",N. CONDUIT AVE.(W/B),-73.774284,-75.779205,"",18:05:00,1,7,FAILURE TO STOP AT RED LIGHT,EYx4uR6EPr,GGB3408,"",4DSD,NISSA,WH
51,5,NY,0,0,0,"",ASTORIA BLVD.(W/B)@9,-74.63109,-76.12247,"",18:15:00,1,7,FAILURE TO STOP AT RED LIGHT,2SZ6prpCy5,70376MB,"",VAN,FORD,RD
1221,198,NJ,0,0,0,"",SO. CONDUIT AVE. (E/,-55.325073,-79.883965,"",18:15:00,1,7,FAILURE TO STOP AT RED LIGHT,zHeG3ZgESh,T26DAY,"",4 DR,NISSA,BK
77,7,NY,0,0,0,"",NORTHERN BLVD.(E/B)@,-77.66494,-79.75478,"",18:20:00,1,7,FAILURE TO STOP AT RED LIGHT,obq5qbSlCc,GFE2954,"",4DSD,SUBAR,GY
1841,997,NJ,0,0,0,"",QUEENS BLVD.(E/B)@70,-52.47602,-81.478905,"",18:21:00,1,7,FAILURE TO STOP AT RED LIGHT,ql433RHFJw,SUD42Y,"",4 DR,CHRYS,BK
23,2,NY,0,0,0,"",QUEENS BLVD.(W/B)@BR,-70.98549,-73.255936,"",18:23:00,1,7,FAILURE TO STOP AT RED LIGHT,ouOBEKYqex,GFW3137,"",PICK,NISSA,BK
11,1,NY,0,0,0,"",E. FORDHAM RD.(E/B)@,-71.40778,-72.102455,"",18:22:00,1,7,FAILURE TO STOP AT RED LIGHT,PLaH9eXrDK,51219MC,"",VAN,CHEVR,WH
1709,1533,MD,0,0,0,"",ATLANTIC AVE.(E/B)@P,-56.52687,-122.323,"",18:24:00,1,7,FAILURE TO STOP AT RED LIGHT,KHkrUARBs5,9BA8393,"",4S,SUZUK,""
21,2,NY,0,0,0,"",RICHMOND RD.(W/B)@ N,-71.804405,-72.474205,"",18:28:00,1,7,FAILURE TO STOP AT RED LIGHT,ap5mqJhpXk,GAB5165,"",SUBN,SUBAR,WH
37,3,NY,0,0,0,"",FRANCIS LEWIS BLVD.(,-73.245445,-75.376335,"",18:21:00,1,7,FAILURE TO STOP AT RED LIGHT,gHUZf3d90f,GDF5389,"",4DSD,HYUND,BK
1304,241,NJ,0,0,0,"",KINGS HWY(N/B)@BEVER,-56.57434,-122.58211,"",18:32:00,1,7,FAILURE TO STOP AT RED LIGHT,VCMEDsyYV0,UZZ82K,"",4 DR,M B,BLACK
831,551,NM,0,0,0,"",3RD AVE.(S/B)@E. 135,-62.858944,-103.01398,"",18:32:00,1,7,FAILURE TO STOP AT RED LIGHT,V6vWaF8elP,MRN744,"",4W,HYUND,GRA
23,2,NY,0,0,0,"",E.135TH ST. W/B @ 3R,-71.87951,-72.61009,"",18:31:00,1,7,FAILURE TO STOP AT RED LIGHT,R5oiWUymHk,ZILIZILI,"","",INFIN,WH
56,5,NY,0,0,0,"",HORACE HARDING EXPWY,-75.321724,-76.634926,"",18:39:00,1,7,FAILURE TO STOP AT RED LIGHT,3wb1mpY3AF,85602MC,"",VAN,NISSA,GY
61,6,NY,0,0,0,"",HORACE HARDING EXPWY,-74.39255,-76.52453,"",17:37:00,1,7,FAILURE TO STOP AT RED LIGHT,RlsjDz6QbM,T419849C,"","",LINCO,BK
62,6,NY,0,0,0,"",ATLANTIC AVE.(E/B)@P,-74.33066,-77.643555,"",18:36:00,1,7,FAILURE TO STOP AT RED LIGHT,ek56XSrxic,GCH1755,"",SUBN,HYUND,BL
75,7,NY,0,0,0,"",FRANCIS LEWIS BLVD.(,-76.9111,-78.641525,"",18:43:00,1,7,FAILURE TO STOP AT RED LIGHT,u3R3Sq6QCk,L65904,"","",FORD,LT-GY
25,2,NY,0,0,0,"",E. 135TH ST. (W)@ AL,-71.6111,-72.05359,"",18:46:00,1,7,FAILURE TO STOP AT RED LIGHT,HKAgeyn51F,T522718C,"",4DSD,TOYOT,BL
73,7,NY,0,0,0,"",ATLANTIC AVE.(W)@ BE,-76.106384,-79.93181,"",18:53:00,1,7,FAILURE TO STOP AT RED LIGHT,PUz80ar8ME,T625188C,"",4DSD,LINCO,BK
61,6,NY,0,0,0,"",KINGS HGWY. (E/B) @,-74.82313,-76.522675,"",18:50:00,1,7,FAILURE TO STOP AT RED LIGHT,QQUB9VaxUR,GAC1416,"",SUBN,HONDA,BK
46,4,NY,0,0,0,"",EASTERN PKWY(W/B)@HO,-72.565155,-74.85972,"",18:54:00,1,7,FAILURE TO STOP AT RED LIGHT,Pgpys6FU2N,GFR5913,"",CONV,BMW,GY
46,4,NY,0,0,0,"",OCEAN PKWY(N/B)@AVE.,-72.343765,-75.43156,"",18:58:00,1,7,FAILURE TO STOP AT RED LIGHT,ttbT2veDoG,GHK2762,"",SUBN,TOYOT,GY
22,2,NY,0,0,0,"",QUEENS BLVD.(E/B)@39,-70.457405,-72.813774,"",18:40:00,1,7,FAILURE TO STOP AT RED LIGHT,Bl9H5rN92u,7Y49A,"",TAXI,TOYOT,YW
23,2,NY,0,0,0,"",NORTHERN BLVD.(W/B)@,-71.600624,-72.319374,"",18:52:00,1,7,FAILURE TO STOP AT RED LIGHT,4wOFTSwt7S,GBZ8127,"","",JEEP,GR
42,4,NY,0,0,0,"",3RD AVE.(S/B)@E. 135,-72.327034,-75.32594,"",19:02:00,1,7,FAILURE TO STOP AT RED LIGHT,z7eQhByUJO,GFM5149,"",4DSD,TOYOT,WH
36,3,NY,0,0,0,"",QUEENS MIDTOWN EXPWY,-72.548065,-74.97864,"",19:05:00,1,7,FAILURE TO STOP AT RED LIGHT,EWQZQqBDQ6,59469LA,"","",FORD,WH
1103,1781,NJ,0,0,0,"",NORTHERN BLVD.  (E/B,-69.19462,-109.78526,"",19:08:00,1,7,FAILURE TO STOP AT RED LIGHT,sys2QUTYOA,YUG75D,"","",NISSA,GY
1310,584,VA,0,0,0,"",E.135TH ST. W/B @ 3R,-59.49824,-120.251366,"",19:07:00,1,7,FAILURE TO STOP AT RED LIGHT,O9NDQV0wmr,9878TP,"",4DSD,ACURA,BK
12,1,NY,0,0,0,"",HMLTN AVE. (N)@CLINT,-71.46031,-72.14346,"",19:12:00,1,7,FAILURE TO STOP AT RED LIGHT,sXZc49sxmy,GBU5941,"",4DSD,INFIN,BK
27,2,NY,0,0,0,"",WILLIAMSBURG ST.(S/B,-71.63227,-73.675,"",19:13:00,1,7,FAILURE TO STOP AT RED LIGHT,tPQPnVfPYj,GEF9159,"",4DSD,TOYOT,WH
44,4,NY,0,0,0,"",ATLANTIC AVE.(W/B)@K,-73.29922,-75.08867,"",19:14:00,1,7,FAILURE TO STOP AT RED LIGHT,HnXUKT01ly,ICU8TEN,"",SUBN,ME/BE,GY
12,1,NY,0,0,0,"",FLATBUSH AVE.(N/B)@B,-71.37225,-73.50042,"",19:05:00,1,7,FAILURE TO STOP AT RED LIGHT,FdG008lqIs,GEB8348,"",2DSD,MINI,WH
52,5,NY,0,0,0,"",ATLANTIC AVE.(E/B)@L,-75.332756,-77.70604,"",19:21:00,1,7,FAILURE TO STOP AT RED LIGHT,X5CjdE0yqy,GCE1961,"",4DSD,HONDA,BR
1672,1815,IL,0,0,0,"",ATLANTIC AVE.(W)@ BE,-55.83682,-107.33264,"",19:23:00,1,7,FAILURE TO STOP AT RED LIGHT,Ei1tsPgFS3,5370081,"",4DOO,HONDA,BLK
35,3,NY,0,0,0,"",ATLANTIC AVE.(E/B)@,-73.120705,-74.840965,"",18:23:00,1,7,FAILURE TO STOP AT RED LIGHT,PrM9E4mNVj,R13383,"",4DSD,TOYOT,WH
400,1889,NJ,0,0,0,"",QUEENS BLVD.  (E/B),-54.668907,-70.754425,"",19:15:00,1,7,FAILURE TO STOP AT RED LIGHT,MUNAuZ4E7X,WVY20W,"",4 DR,INFIN,SL
205,615,CT,0,0,0,"",GUN HILL ROAD(E/B)@E,-61.09491,-122.880035,"",19:29:00,1,7,FAILURE TO STOP AT RED LIGHT,VvJMXIoZ2w,550ZFR,"",4D S,HYUND,RED
1587,1418,NJ,0,0,0,"",FOREST AVE.(W/B)@SOU,-67.848015,-112.15379,"",19:30:00,1,7,FAILURE TO STOP AT RED LIGHT,sQVGCwhooe,S58CBR,"",4 DR,TOYOT,RD
471,693,NC,0,0,0,"",3RD AVE.(S/B)@E. 135,-58.771076,-97.13591,"",19:36:00,1,7,FAILURE TO STOP AT RED LIGHT,e7jSgxc9DV,ZPN2850,"",CP,HONDA,""
17,1,NY,0,0,0,"",CONEY ISLAND AVE.(S/,-70.93,-73.13324,"",19:38:00,1,7,FAILURE TO STOP AT RED LIGHT,DrfjZvoRYG,GEM8418,"",SUBN,LEXUS,GY
916,1818,DE,0,0,0,"",FLATBUSH AVE.(N/B)@B,-68.133736,-109.06175,"",19:41:00,1,7,FAILURE TO STOP AT RED LIGHT,hsg5NRgfvH,PC604093,"",PCF,CHRYS,""
73,7,NY,0,0,0,"",GUN HILL ROAD(E/B)@E,-76.44677,-79.91667,"",19:39:00,1,7,FAILURE TO STOP AT RED LIGHT,SBxzfgWItx,GGD4328,"",SUBN,NISSA,GY
47,4,NY,0,0,0,"",VAN WYCK EXP.SVC. RD,-73.14973,-75.805786,"",19:44:00,1,7,FAILURE TO STOP AT RED LIGHT,1DRW5x14UU,60534LA,"","",FORD,WH
496,1525,NJ,0,0,0,"",CLOVE RD.(S/B)@CHESH,-56.72127,-114.18074,"",19:44:00,1,7,FAILURE TO STOP AT RED LIGHT,EO62OWCO4c,H62CUD,"",WAGO,CHEVR,BK
22,2,NY,0,0,0,"",HORACE HARDING EXPWY,-71.75255,-73.72021,"",19:45:00,1,7,FAILURE TO STOP AT RED LIGHT,gWDDcC0SZD,T635011C,"",SUBN,FORD,BK
34,3,NY,0,0,0,"",HORACE HARDING EXPWY,-72.65996,-75.69991,"",19:46:00,1,7,FAILURE TO STOP AT RED LIGHT,qMvAqBFqse,76613,"",4DSD,TOYOT,GY
73,7,NY,0,0,0,"",RICHMOND RD.(W/B)@ N,-77.59411,-78.86585,"",19:52:00,1,7,FAILURE TO STOP AT RED LIGHT,3kMAqaiLce,GAA1160,"",4DSD,NISSA,WH
45,4,NY,0,0,0,"",ASTORIA BLVD.(W/B)@9,-72.052284,-75.554344,"",19:44:00,1,7,FAILURE TO STOP AT RED LIGHT,S76pmkC2b7,GGB3814,"",4DSD,NISSA,WH
42,4,NY,0,0,0,"",OCEAN PKWY(N/B)@AVE.,-72.31517,-75.39387,"",19:46:00,1,7,FAILURE TO STOP AT RED LIGHT,4LZy8hoi7a,GCM2949,"",4DSD,LEXUS,GY
41,4,NY,0,0,0,"",HORACE HARDING EXPWY,-73.06175,-74.54134,"",19:51:00,1,7,FAILURE TO STOP AT RED LIGHT,7eJQwXYjmV,GCV7672,"",4DSD,CHRYS,BK
47,4,NY,0,0,0,"",FLATBUSH AVE.(S/B)@D,-73.79337,-75.79081,"",19:54:00,1,7,FAILURE TO STOP AT RED LIGHT,4dOyzkHeWV,GJA8474,"",SUBN,GMC,WH
42,4,NY,0,0,0,"",ATLANTIC AVE.(E/B)@P,-73.22935,-75.882576,"",19:57:00,1,7,FAILURE TO STOP AT RED LIGHT,HawR1PUZe3,GGJ5855,"",4DSD,NISSA,GY
1695,2067,VA,0,0,0,"",ATLANTIC AVE.(E/B)@L,-61.31356,-102.842865,"",19:57:00,1,7,FAILURE TO STOP AT RED LIGHT,5BPKDKBT8o,XMC7820,"",4D,NISSA,BLU
64,6,NY,0,0,0,"",HORACE HARDING EXPWY,-75.12152,-76.28671,"",19:57:00,1,7,FAILURE TO STOP AT RED LIGHT,wfavDOH4GM,GDR4944,"",SUBN,CHEVR,WH
56,5,NY,0,0,0,"",KINGS HGWY. (E/B) @,-75.978775,-77.505165,"",19:58:00,1,7,FAILURE TO STOP AT RED LIGHT,f2NzPJ0KZ3,42370JM,"",VAN,GMC,BR
54,5,NY,0,0,0,"",GUN HILL RD.(E/B)@WH,-74.63061,-76.003815,"",19:58:00,1,7,FAILURE TO STOP AT RED LIGHT,VVQvBG3MiM,GCV4862,"",SUBN,HONDA,GY
34,3,NY,0,0,0,"",W. FORDHAM RD.(W/B)@,-73.602264,-75.163475,"",19:59:00,1,7,FAILURE TO STOP AT RED LIGHT,WZpRTZtVwc,VICTORMR,"",4 DR,ME/BE,BK
17,1,NY,0,0,0,"",HORACE HARDING EXPWY,-71.04279,-72.41452,"",20:03:00,1,7,FAILURE TO STOP AT RED LIGHT,HLGoI00MwT,GEK8832,"",4DSD,TOYOT,WH
63,6,NY,0,0,0,"",WHITESTONE EXPWY.SVC,-74.617355,-76.95517,"",20:02:00,1,7,FAILURE TO STOP AT RED LIGHT,pcKBj3N447,GEF5119,"",4DSD,INFIN,BK
24,2,NY,0,0,0,"",KINGS HGWY. (E/B) @,-71.53754,-72.77121,"",20:04:00,1,7,FAILURE TO STOP AT RED LIGHT,eIQPbRkcbY,GDX9096,"","",HONDA,WH
33,3,NY,0,0,0,"",BOSTON RD.(E)@ PELHA,-73.79643,-74.71698,"",06:28:00,1,7,FAILURE TO STOP AT RED LIGHT,GjU0dT61hi,GEJ8557,"","",ACURA,GREY
54,5,NY,0,0,0,"",EASTERN PKWY.(E)@UTI,-74.28259,-76.20831,"",06:11:00,1,7,FAILURE TO STOP AT RED LIGHT,zhvJ4YLnoA,GJA5726,"","",DODGE,ORANG
11,1,NY,0,0,0,"",BRONXDALE AVE. (W/B),-71.86687,-72.30653,"",07:19:00,1,7,FAILURE TO STOP AT RED LIGHT,GKtYEFjpFR,GGU1386,"","",TOYOT,GREY
26,2,NY,0,0,0,"",CAPODANNO BLVD.(N/B),-71.78871,-73.63902,"",07:37:00,1,7,FAILURE TO STOP AT RED LIGHT,WOiqub5ygm,7660,"","",TOYOT,WH
62,6,NY,0,0,0,"",WEST ST.(S/B)@14TH S,-75.71324,-76.70487,"",01:12:00,1,7,FAILURE TO STOP AT RED LIGHT,iB5xto5fcI,GBV4803,"",SUBN,BMW,WH
16,1,NY,0,0,0,"",FLATBUSH AVE.(N/B) @,-71.68797,-72.65552,"",01:19:00,1,7,FAILURE TO STOP AT RED LIGHT,bRGg1cV09o,GGN8296,"",SUBN,FORD,BK
45,4,NY,0,0,0,"",HORACE HARDING EXPWY,-73.89787,-75.618675,"",01:30:00,1,7,FAILURE TO STOP AT RED LIGHT,BaAAyj4GzP,FFN2826,"",SUBN,HONDA,BK
329,1620,NJ,0,0,0,"",WEST ST.(S/B)@14TH S,-65.99966,-98.87107,"",01:51:00,1,7,FAILURE TO STOP AT RED LIGHT,HVk75DVPMk,XF863R,"",VAN,FORD,WHITE
73,7,NY,0,0,0,"",REMSEN AVE.(N/B)@WIN,-77.9136,-78.44925,"",01:56:00,1,7,FAILURE TO STOP AT RED LIGHT,h5Fi5B0Mno,T620137C,"",4DSD,MERCU,BL
61,6,NY,0,0,0,"",ASTORIA BLVD.(W/B)@9,-74.24974,-77.072914,"",07:20:00,1,7,FAILURE TO STOP AT RED LIGHT,zdj0UePJV5,EGF2351,"","",TOYOT,GREY
33,3,NY,0,0,0,"",REMSEN AVE.(N/B)@WIN,-73.08296,-75.995544,"",02:32:00,1,7,FAILURE TO STOP AT RED LIGHT,VoGgmbaFFZ,GJA4812,"",SUBN,ROVER,GY
41,4,NY,0,0,0,"",S. CONDUIT AVE.(E/B),-72.50169,-75.04829,"",12:22:00,1,7,FAILURE TO STOP AT RED LIGHT,HMVHAqTNGu,EUK7497,"","",ME/BE,BLUE
72,7,NY,0,0,0,"",PARK AVE.(W/B)@WASHI,-76.51779,-78.75838,"",02:28:00,1,7,FAILURE TO STOP AT RED LIGHT,nD0zgv4RCA,FFL9749,"",SUBN,AUDI,BL
42,4,NY,0,0,0,"",NORTHERN BLVD.  (E/B,-73.47338,-75.458595,"",02:44:00,1,7,FAILURE TO STOP AT RED LIGHT,yfUvSzCE0R,GHN2564,"",4DSD,AUDI,GY
17,1,NY,0,0,0,"",39TH ST.(N/B)@NORTHE,-71.05327,-72.213,"",03:39:00,1,7,FAILURE TO STOP AT RED LIGHT,NVbwHPABtZ,ERU2531,"","",PONTI,BK
66,6,NY,0,0,0,"",NORTHERN BLVD.(E/B)@,-74.39336,-77.12119,"",03:51:00,1,7,FAILURE TO STOP AT RED LIGHT,iYatK1wJwY,53333JR,"","",MACK,WH
63,6,NY,0,0,0,"",KISSENA BLVD.(S/B)@B,-75.570564,-77.917305,"",03:56:00,1,7,FAILURE TO STOP AT RED LIGHT,xgYqflDpFH,EPC9401,"","",TOYOT,BK
74,7,NY,0,0,0,"",PENNSYLVANIA AVE.(S/,-76.36713,-79.57055,"",03:36:00,1,7,FAILURE TO STOP AT RED LIGHT,7lL8tiR7u5,GAR5819,"","",TOYOT,GR
13,1,NY,0,0,0,"",NORTHERN BLVD.  (E/B,-71.622086,-73.82274,"",04:08:00,1,7,FAILURE TO STOP AT RED LIGHT,Jm7mzrYDYC,GFH6889,"",4DSD,CHEVR,GY
13,1,NY,0,0,0,"",HORACE HARDING EXPWY,-71.71518,-72.26454,"",04:09:00,1,7,FAILURE TO STOP AT RED LIGHT,F49KIQ62p0,GHM9856,"",SUBN,NISSA,GY
1011,1171,NJ,0,0,0,"",PARK AVE.(W/B)@WASHI,-67.733475,-115.51665,"",02:28:00,1,7,FAILURE TO STOP AT RED LIGHT,w9kQtKVFiL,G89DFW,"",WAGO,BMW,WHITE
24,2,NY,0,0,0,"",YORK AVE. (N/B) @ E.,-70.04728,-73.73171,"",04:09:00,1,7,FAILURE TO STOP AT RED LIGHT,cDf1snGIe2,LAWYER93,"","",ME/BE,GY
47,4,NY,0,0,0,"",ARTHUR KILL RD.(W/B),-72.57568,-75.732834,"",04:12:00,1,7,FAILURE TO STOP AT RED LIGHT,KrnNRHOEea,ESW6914,"","",NISSA,WH
46,4,NY,0,0,0,"",ATLANTIC AVE.(W/B)@K,-73.73702,-74.276825,"",04:13:00,1,7,FAILURE TO STOP AT RED LIGHT,qc6YCeFxAp,95RF12,"",MCY,VESPA,BK
34,3,NY,0,0,0,"",BORDEN AVE.(E/B)@GRE,-72.58366,-74.08882,"",04:21:00,1,7,FAILURE TO STOP AT RED LIGHT,E2eBUC5nz4,FCR8615,"",SUBN,CADIL,BK
36,3,NY,0,0,0,"",ATLANTIC AVE.(W)@ BE,-72.96066,-74.36173,"",04:48:00,1,7,FAILURE TO STOP AT RED LIGHT,m0veIRhifY,EHY6155,"",SUBN,JEEP,BK
61,6,NY,0,0,0,"",HORACE HARDING EXPWY,-75.331375,-77.264755,"",05:14:00,1,7,FAILURE TO STOP AT RED LIGHT,txBIGCCned,FET7606,"","",INFIN,BL
32,3,NY,0,0,0,"",TILLARY ST.(E/B)@FLA,-73.96444,-75.279,"",05:33:00,1,7,FAILURE TO STOP AT RED LIGHT,BmPUjDrr5F,6G78A,"",TAXI,FORD,YW
16,1,NY,0,0,0,"",WHITE PLAINS RD.(S/B,-70.68175,-72.6434,"",05:36:00,1,7,FAILURE TO STOP AT RED LIGHT,lywYnMVQqq,EVD7363,"",SUBN,GMC,BK
61,6,NY,0,0,0,"",3RD AVE.(S/B)@E. 135,-75.724266,-77.23514,"",05:51:00,1,7,FAILURE TO STOP AT RED LIGHT,6y28JccFA0,K986LS,"",PICK,CHEVR,BL
74,7,NY,0,0,0,"",CADMAN PLAZA(E/B)@PR,-77.46268,-78.687065,"",05:54:00,1,7,FAILURE TO STOP AT RED LIGHT,wSZPE63vLR,ETB2166,"","",LEXUS,GY
35,3,NY,0,0,0,"",NORTHERN BLVD.  (E/B,-73.66197,-74.461,"",04:56:00,1,7,FAILURE TO STOP AT RED LIGHT,xsI6qBvOHG,46855JW,"","",MACK,WH
64,6,NY,0,0,0,"",S. CONDUIT AVE.(E/B),-75.80438,-77.949066,"",05:59:00,1,7,FAILURE TO STOP AT RED LIGHT,2WU2Jg5RLp,GBH4294,"",SUBN,FORD,BK
11,1,NY,0,0,0,"",ATLANTIC AVE.(W/B)@F,-70.58214,-73.46618,"",06:07:00,1,7,FAILURE TO STOP AT RED LIGHT,wjyX6lwDPo,GGX3694,"","",HYUND,TN
352,1513,NJ,0,0,0,"",WHITE PLAINS RD.(S/B,-60.917286,-76.202156,"",06:16:00,1,7,FAILURE TO STOP AT RED LIGHT,YLmYa3AfCE,P78CEZ,"",4 DR,BUICK,GY
14,1,NY,0,0,0,"",QUEENS BLVD. (E/B) @,-70.493546,-73.05485,"",05:49:00,1,7,FAILURE TO STOP AT RED LIGHT,jqcsi5LlNM,FBG6896,"",PICK,DODGE,BK
31,3,NY,0,0,0,"",CADMAN PLAZA(E/B)@PR,-72.94584,-75.71454,"",06:24:00,1,7,FAILURE TO STOP AT RED LIGHT,LscyEuLPav,T625289C,"",4DSD,TOYOT,RD
73,7,NY,0,0,0,"",REMSEN AVE.(N/B)@WIN,-76.47937,-79.22016,"",06:26:00,1,7,FAILURE TO STOP AT RED LIGHT,JpWssciexw,V695WF,"","",FORD,WH
67,6,NY,0,0,0,"",RICHMOND RD.(E/B)@ N,-74.14887,-76.54996,"",06:31:00,1,7,FAILURE TO STOP AT RED LIGHT,looV5VIdE8,EHS7018,"","",CHRYS,GY
66,6,NY,0,0,0,"",SEAGIRT BLVD.(W/B)@B,-75.28011,-76.53427,"",06:33:00,1,7,FAILURE TO STOP AT RED LIGHT,zeSKBLrIbZ,FBE1603,"",4DSD,TOYOT,GY
12,1,NY,0,0,0,"",STEINWAY ST.(S/B)@NO,-71.9261,-73.577126,"",06:02:00,1,7,FAILURE TO STOP AT RED LIGHT,6lXTprR3Ho,T624810C,"",4DSD,NISSA,BK
42,4,NY,0,0,0,"",GRAND CONCOURSE(N/B),-72.753365,-74.151405,"",06:36:00,1,7,FAILURE TO STOP AT RED LIGHT,oiTdnC1jfL,59908BA,"",BUS,IC,YW
75,7,NY,0,0,0,"",EASTERN PKWY (W/B)@B,-77.49941,-79.73745,"",06:37:00,1,7,FAILURE TO STOP AT RED LIGHT,441hF6vWVI,GBJ2984,"",4DSD,NISSA,GR
15,1,NY,0,0,0,"",QUEENS BLVD. (W/B) @,-71.87449,-73.04092,"",06:40:00,1,7,FAILURE TO STOP AT RED LIGHT,OeZZWwkj2K,68231LA,"",4DSD,FORD,WH
23,2,NY,0,0,0,"",BORDEN AVE.(E/B)@GRE,-71.326164,-73.92933,"",06:40:00,1,7,FAILURE TO STOP AT RED LIGHT,BoeFdzk1Ih,GED9528,"",SUBN,NISSA,GY
1767,1671,NJ,0,0,0,"",FLATBUSH AVE.(S/B)@D,-54.422226,-113.11236,"",06:22:00,1,7,FAILURE TO STOP AT RED LIGHT,WFHcA2z6JB,PSR50T,"",WAGO,FORD,GN
651,658,NJ,0,0,0,"",RICHMOND RD.(E/B)@ N,-59.375877,-117.08887,"",06:41:00,1,7,FAILURE TO STOP AT RED LIGHT,yq9FRTMvCG,WTT91G,"",2 DR,PONTI,WT
63,6,NY,0,0,0,"",SEAGIRT BLVD.(W/B)@B,-75.153336,-77.03714,"",06:24:00,1,7,FAILURE TO STOP AT RED LIGHT,Fm54en2SVn,GFR9301,"",4DSD,PONTI,WH
64,6,NY,0,0,0,"",PENNSYLVANIA AVE.(S/,-75.790665,-77.72201,"",06:44:00,1,7,FAILURE TO STOP AT RED LIGHT,ghjdBBZG9G,GDZ4485,"",4DSD,VOLKS,GR
25,2,NY,0,0,0,"",EASTERN PKWY.(E)@UTI,-70.210335,-73.321465,"",06:25:00,1,7,FAILURE TO STOP AT RED LIGHT,lUiHweiOGp,GDP3691,"","",NISSA,BLK
64,6,NY,0,0,0,"",QUEENS BLVD.(E/B)@39,-75.047714,-77.16253,"",06:44:00,1,7,FAILURE TO STOP AT RED LIGHT,EOz9MKeycC,77631KA,"",TRK,FRUEH,GRN
62,6,NY,0,0,0,"",ASTORIA BLVD.(W/B)@S,-74.12635,-77.185326,"",06:46:00,1,7,FAILURE TO STOP AT RED LIGHT,ZTAUnOrvqU,EJG3680,"",4DSD,TOYOT,TN
34,3,NY,0,0,0,"",2ND AVE.(S/B)@26TH S,-73.69756,-74.2441,"",06:49:00,1,7,FAILURE TO STOP AT RED LIGHT,hgGBxot16B,50554MC,"",VAN,FORD,WH
52,5,NY,0,0,0,"",LINDEN BLVD. (W/B)@,-75.89119,-76.42714,"",06:49:00,1,7,FAILURE TO STOP AT RED LIGHT,8NK5yw8IXa,GDP2270,"",SUBN,CHEVR,MR
64,6,NY,0,0,0,"",QUEENS BLVD.(W/B)@BR,-75.93251,-77.93267,"",06:51:00,1,7,FAILURE TO STOP AT RED LIGHT,NUjBx9FkNm,GEN7084,"",PICK,FORD,BK
24,2,NY,0,0,0,"",3RD AVE.(S/B)@E. 135,-71.162674,-73.45377,"",07:04:00,1,7,FAILURE TO STOP AT RED LIGHT,0TqUNp1dk3,56886PA,"","",MACK,GR
71,7,NY,0,0,0,"",ATLANTIC AVE.(E/B)@,-76.195076,-79.87889,"",07:06:00,1,7,FAILURE TO STOP AT RED LIGHT,4LXhYOABbx,GEB6787,"",SUBN,NISSA,GY
